{
  "type": "FeatureCollection",
  "features": [
    {
      "type": "Feature",
      "properties": {
        "norad_id": 66174,
        "name": "HTV-X1",
        "group": "stations",
        "lat": -26.138258046163234,
        "lon": -2.6720079943791655,
        "alt_km": 419.42774211725555,
        "timestamp": "2025-12-10T07:43:53.564760+00:00",
        "meta_object_name": "HTV-X1",
        "meta_object_id": "2025-241A",
        "meta_epoch": "2025-12-09T12:14:10.839552",
        "meta_mean_motion": 15.49447168,
        "meta_eccentricity": 0.00034,
        "meta_inclination": 51.631,
        "meta_ra_of_asc_node": 158.4724,
        "meta_arg_of_pericenter": 223.8185,
        "meta_mean_anomaly": 136.2534,
        "meta_ephemeris_type": 0,
        "meta_classification_type": "U",
        "meta_norad_cat_id": 66174,
        "meta_element_set_no": 999,
        "meta_rev_at_epoch": 51,
        "meta_bstar": 0.00026025969,
        "meta_mean_motion_dot": 0.00014141,
        "meta_mean_motion_ddot": 0,
        "tle_line1": "1 66174U 25241A   25343.50984768  .00014141  00000+0  26026-3 0  9991",
        "tle_line2": "2 66174  51.6310 158.4724 0003400 223.8185 136.2534 15.49447168   518"
      },
      "geometry": {
        "type": "Point",
        "coordinates": [
          -2.6720079943791655,
          -26.138258046163234
        ]
      }
    },
    {
      "type": "Feature",
      "properties": {
        "norad_id": 66515,
        "name": "SZ-21 MODULE",
        "group": "stations",
        "lat": 37.37434842011781,
        "lon": 150.9441671718861,
        "alt_km": 377.8692682074543,
        "timestamp": "2025-12-10T07:43:53.564770+00:00",
        "meta_object_name": "SZ-21 MODULE",
        "meta_object_id": "2025-246C",
        "meta_epoch": "2025-12-09T20:30:29.695968",
        "meta_mean_motion": 15.6226557,
        "meta_eccentricity": 0.0006298,
        "meta_inclination": 41.4773,
        "meta_ra_of_asc_node": 33.6441,
        "meta_arg_of_pericenter": 244.5965,
        "meta_mean_anomaly": 115.4223,
        "meta_ephemeris_type": 0,
        "meta_classification_type": "U",
        "meta_norad_cat_id": 66515,
        "meta_element_set_no": 999,
        "meta_rev_at_epoch": 399,
        "meta_bstar": 0.0003668,
        "meta_mean_motion_dot": 0.0003312,
        "meta_mean_motion_ddot": 0,
        "tle_line1": "1 66515U 25246C   25343.85451037  .00033120  00000+0  36680-3 0  9996",
        "tle_line2": "2 66515  41.4773  33.6441 0006298 244.5965 115.4223 15.62265570  3990"
      },
      "geometry": {
        "type": "Point",
        "coordinates": [
          150.9441671718861,
          37.37434842011781
        ]
      }
    },
    {
      "type": "Feature",
      "properties": {
        "norad_id": 66645,
        "name": "SHENZHOU-22",
        "group": "stations",
        "lat": -32.3621388991065,
        "lon": -102.7628887792357,
        "alt_km": 397.57383913674494,
        "timestamp": "2025-12-10T07:43:53.564780+00:00",
        "meta_object_name": "SHENZHOU-22",
        "meta_object_id": "2025-272A",
        "meta_epoch": "2025-12-09T13:49:14.456064",
        "meta_mean_motion": 15.58965688,
        "meta_eccentricity": 0.00089597,
        "meta_inclination": 41.4682,
        "meta_ra_of_asc_node": 35.9133,
        "meta_arg_of_pericenter": 5.1145,
        "meta_mean_anomaly": 354.9784,
        "meta_ephemeris_type": 0,
        "meta_classification_type": "U",
        "meta_norad_cat_id": 66645,
        "meta_element_set_no": 999,
        "meta_rev_at_epoch": 26300,
        "meta_bstar": 0.00041052725,
        "meta_mean_motion_dot": 0.00032682,
        "meta_mean_motion_ddot": 0,
        "tle_line1": "1 66645U 25272A   25343.57586176  .00032682  00000+0  41053-3 0  9993",
        "tle_line2": "2 66645  41.4682  35.9133 0008959   5.1145 354.9784 15.58965688263007"
      },
      "geometry": {
        "type": "Point",
        "coordinates": [
          -102.7628887792357,
          -32.3621388991065
        ]
      }
    },
    {
      "type": "Feature",
      "properties": {
        "norad_id": 66664,
        "name": "SOYUZ-MS 28",
        "group": "stations",
        "lat": -26.13829974402167,
        "lon": -2.6719635536755626,
        "alt_km": 419.427744628425,
        "timestamp": "2025-12-10T07:43:53.564790+00:00",
        "meta_object_name": "SOYUZ-MS 28",
        "meta_object_id": "2025-275A",
        "meta_epoch": "2025-12-09T12:14:10.838688",
        "meta_mean_motion": 15.49447168,
        "meta_eccentricity": 0.00034,
        "meta_inclination": 51.631,
        "meta_ra_of_asc_node": 158.4724,
        "meta_arg_of_pericenter": 223.8185,
        "meta_mean_anomaly": 136.2534,
        "meta_ephemeris_type": 0,
        "meta_classification_type": "U",
        "meta_norad_cat_id": 66664,
        "meta_element_set_no": 999,
        "meta_rev_at_epoch": 194,
        "meta_bstar": 0.00026026,
        "meta_mean_motion_dot": 0.00014141,
        "meta_mean_motion_ddot": 0,
        "tle_line1": "1 66664U 25275A   25343.50984767  .00014141  00000+0  26026-3 0  9991",
        "tle_line2": "2 66664  51.6310 158.4724 0003400 223.8185 136.2534 15.49447168  1940"
      },
      "geometry": {
        "type": "Point",
        "coordinates": [
          -2.6719635536755626,
          -26.13829974402167
        ]
      }
    },
    {
      "type": "Feature",
      "properties": {
        "norad_id": 66906,
        "name": "1998-067XS",
        "group": "stations",
        "lat": -40.149048324439164,
        "lon": 16.344052898030107,
        "alt_km": 417.9193457629053,
        "timestamp": "2025-12-10T07:43:53.564800+00:00",
        "meta_object_name": "1998-067XS",
        "meta_object_id": "1998-067XS",
        "meta_epoch": "2025-12-09T12:09:24.113376",
        "meta_mean_motion": 15.50312686,
        "meta_eccentricity": 0.00039811,
        "meta_inclination": 51.63,
        "meta_ra_of_asc_node": 158.4502,
        "meta_arg_of_pericenter": 188.2752,
        "meta_mean_anomaly": 171.8172,
        "meta_ephemeris_type": 0,
        "meta_classification_type": "U",
        "meta_norad_cat_id": 66906,
        "meta_element_set_no": 999,
        "meta_rev_at_epoch": 111,
        "meta_bstar": 0.00059211588,
        "meta_mean_motion_dot": 0.00033864,
        "meta_mean_motion_ddot": 0,
        "tle_line1": "1 66906U 98067XS  25343.50652909  .00033864  00000+0  59212-3 0  9995",
        "tle_line2": "2 66906  51.6300 158.4502 0003981 188.2752 171.8172 15.50312686  1110"
      },
      "geometry": {
        "type": "Point",
        "coordinates": [
          16.344052898030107,
          -40.149048324439164
        ]
      }
    },
    {
      "type": "Feature",
      "properties": {
        "norad_id": 66907,
        "name": "1998-067XT",
        "group": "stations",
        "lat": -44.766372373394354,
        "lon": 26.186599979997382,
        "alt_km": 415.484284443608,
        "timestamp": "2025-12-10T07:43:53.564810+00:00",
        "meta_object_name": "1998-067XT",
        "meta_object_id": "1998-067XT",
        "meta_epoch": "2025-12-09T12:07:37.114752",
        "meta_mean_motion": 15.50864429,
        "meta_eccentricity": 0.00048036,
        "meta_inclination": 51.6307,
        "meta_ra_of_asc_node": 158.4423,
        "meta_arg_of_pericenter": 208.5081,
        "meta_mean_anomaly": 151.5646,
        "meta_ephemeris_type": 0,
        "meta_classification_type": "U",
        "meta_norad_cat_id": 66907,
        "meta_element_set_no": 999,
        "meta_rev_at_epoch": 111,
        "meta_bstar": 0.0012921241,
        "meta_mean_motion_dot": 0.00076342,
        "meta_mean_motion_ddot": 0,
        "tle_line1": "1 66907U 98067XT  25343.50529068  .00076342  00000+0  12921-2 0  9998",
        "tle_line2": "2 66907  51.6307 158.4423 0004803 208.5081 151.5646 15.50864429  1113"
      },
      "geometry": {
        "type": "Point",
        "coordinates": [
          26.186599979997382,
          -44.766372373394354
        ]
      }
    },
    {
      "type": "Feature",
      "properties": {
        "norad_id": 66908,
        "name": "1998-067XU",
        "group": "stations",
        "lat": -45.369610498841034,
        "lon": 27.762277139907045,
        "alt_km": 415.3299063609229,
        "timestamp": "2025-12-10T07:43:53.564820+00:00",
        "meta_object_name": "1998-067XU",
        "meta_object_id": "1998-067XU",
        "meta_epoch": "2025-12-09T18:18:28.282176",
        "meta_mean_motion": 15.50948128,
        "meta_eccentricity": 0.0005009,
        "meta_inclination": 51.6303,
        "meta_ra_of_asc_node": 157.1615,
        "meta_arg_of_pericenter": 208.2103,
        "meta_mean_anomaly": 151.8616,
        "meta_ephemeris_type": 0,
        "meta_classification_type": "U",
        "meta_norad_cat_id": 66908,
        "meta_element_set_no": 999,
        "meta_rev_at_epoch": 115,
        "meta_bstar": 0.0013388,
        "meta_mean_motion_dot": 0.00079389,
        "meta_mean_motion_ddot": 0,
        "tle_line1": "1 66908U 98067XU  25343.76282734  .00079389  00000+0  13388-2 0  9995",
        "tle_line2": "2 66908  51.6303 157.1615 0005009 208.2103 151.8616 15.50948128  1153"
      },
      "geometry": {
        "type": "Point",
        "coordinates": [
          27.762277139907045,
          -45.369610498841034
        ]
      }
    }
  ]
}